{
    "links": {
        "self": "http://www.neowsapp.com/rest/v1/neo/3766435?api_key=iIulBulltgU6a56xZRHN4H3l9WmuAYTsLGpBGhQ2"
    },
    "id": "3766435",
    "neo_reference_id": "3766435",
    "name": "(2017 AM13)",
    "designation": "2017 AM13",
    "nasa_jpl_url": "http://ssd.jpl.nasa.gov/sbdb.cgi?sstr=3766435",
    "absolute_magnitude_h": 25.0,
    "estimated_diameter": {
        "kilometers": {
            "estimated_diameter_min": 0.02658,
            "estimated_diameter_max": 0.0594346868
        },
        "meters": {
            "estimated_diameter_min": 26.58,
            "estimated_diameter_max": 59.4346868419
        },
        "miles": {
            "estimated_diameter_min": 0.0165160412,
            "estimated_diameter_max": 0.0369309908
        },
        "feet": {
            "estimated_diameter_min": 87.2047272,
            "estimated_diameter_max": 194.9956979785
        }
    },
    "is_potentially_hazardous_asteroid": false,
    "close_approach_data": [
        {
            "close_approach_date": "2017-01-10",
            "close_approach_date_full": "2017-Jan-10 18:16",
            "epoch_date_close_approach": 1484072160000,
            "relative_velocity": {
                "kilometers_per_second": "16.287565505",
                "kilometers_per_hour": "58635.2358181289",
                "miles_per_hour": "36433.6552782146"
            },
            "miss_distance": {
                "astronomical": "0.0379226519",
                "lunar": "14.7519115891",
                "kilometers": "5673147.948991453",
                "miles": "3525130.6730219314"
            },
            "orbiting_body": "Earth"
        },
        {
            "close_approach_date": "2180-01-14",
            "close_approach_date_full": "2180-Jan-14 18:51",
            "epoch_date_close_approach": 6628157460000,
            "relative_velocity": {
                "kilometers_per_second": "15.3878010279",
                "kilometers_per_hour": "55396.0837006103",
                "miles_per_hour": "34420.9721194153"
            },
            "miss_distance": {
                "astronomical": "0.0519131097",
                "lunar": "20.1941996733",
                "kilometers": "7766090.636196339",
                "miles": "4825624.9541299182"
            },
            "orbiting_body": "Earth"
        }
    ],
    "orbital_data": {
        "orbit_id": "3",
        "orbit_determination_date": "2017-04-06 08:21:04",
        "first_observation_date": "2017-01-02",
        "last_observation_date": "2017-01-08",
        "data_arc_in_days": 6,
        "observations_used": 23,
        "orbit_uncertainty": "8",
        "minimum_orbit_intersection": ".0365103",
        "jupiter_tisserand_invariant": "4.577",
        "epoch_osculation": "2457757.5",
        "eccentricity": ".435831938917056",
        "semi_major_axis": "1.406363977957371",
        "inclination": "20.47587117301595",
        "ascending_node_longitude": "286.8048796181124",
        "orbital_period": "609.1791462448865",
        "perihelion_distance": ".793425638621106",
        "perihelion_argument": "257.0712780893947",
        "aphelion_distance": "2.019302317293635",
        "perihelion_time": "2457815.762257506877",
        "mean_anomaly": "325.5693849144926",
        "mean_motion": ".5909591656561436",
        "equinox": "J2000",
        "orbit_class": {
            "orbit_class_type": "APO",
            "orbit_class_description": "Near-Earth asteroid orbits which cross the Earth’s orbit similar to that of 1862 Apollo",
            "orbit_class_range": "a (semi-major axis) > 1.0 AU; q (perihelion) < 1.017 AU"
        }
    },
    "is_sentry_object": false
}